SKYSAT-C1               
1 41601U 16040C   26184.82408387  .00010464  00000+0  29500-3 0  9997
2 41601  96.9550 215.6440 0001627  20.9666 339.1646 15.36585802560427
LAPAN-A3                
1 41603U 16040E   26185.29117207  .00004650  00000+0  14709-3 0  9994
2 41603  97.1496 180.8762 0008773 323.0423  37.0215 15.33220634557437
GAOFEN-3                
1 41727U 16049A   26185.28971494  .00000191  00000+0  71026-4 0  9997
2 41727  98.4009 192.8176 0001700  92.9835 267.1549 14.42218163521117
SKYSAT-C4               
1 41771U 16058B   26184.80699271  .00019051  00000+0  35182-3 0  9990
2 41771  96.9164 205.8879 0002840 135.1077 225.0405 15.49118400548046
SKYSAT-C5               
1 41772U 16058C   26184.92730003  .00009644  00000+0  28878-3 0  9994
2 41772  97.0456 224.8219 0002087 185.9472 174.1747 15.34712826546314
SKYSAT-C2               
1 41773U 16058D   26184.99912748  .00014465  00000+0  33581-3 0  9994
2 41773  97.0161 206.4644 0002871  31.7652 328.3769 15.42460635547646
SKYSAT-C3               
1 41774U 16058E   26184.83313209  .00026418  00000+0  42037-3 0  9992
2 41774  96.8996 215.0461 0001670 133.2448 226.8947 15.53263495548693
ALSAT-1B                
1 41785U 16059C   26185.29892339  .00000047  00000+0  14954-4 0  9990
2 41785  97.7747 193.3241 0009491 162.1946 197.9597 14.72286754523095
PATHFINDER 1            
1 41787U 16059E   26185.24882701  .00000748  00000+0  13881-3 0  9994
2 41787  97.8170 183.7552 0029168 149.3231 210.9687 14.67683566522218
SCATSAT 1               
1 41790U 16059H   26185.12068670  .00001545  00000+0  20876-3 0  9994
2 41790  98.1182 249.0611 0054389 192.1271 167.8635 14.79565973104093
GOKTURK 1A              
1 41875U 16073A   26185.27826620  .00000327  00000+0  73182-4 0  9993
2 41875  98.1229  79.6835 0001405  77.9555 282.1804 14.62786667511324
RESOURCESAT-2A          
1 41877U 16074A   26185.24408568  .00000269  00000+0  14266-3 0  9992
2 41877  98.7524 258.6090 0002951  51.0121 309.1319 14.21606948496726
CARTOSAT-2D             
1 41948U 17008A   26185.28301740  .00004037  00000+0  19492-3 0  9990
2 41948  97.4094 244.2691 0005042 170.8808 189.2519 15.19215358520172
SENTINEL-2B             
1 42063U 17013A   26185.27041903 -.00000177  00000+0 -51028-4 0  9991
2 42063  98.5688 259.8039 0001194  90.0503 270.0817 14.30811889487084
CARTOSAT-2E             
1 42767U 17036C   26184.64211716  .00006795  00000+0  32509-3 0  9990
2 42767  97.4262 244.1738 0002489 235.4252 124.6748 15.19298181500645
FORMOSAT-5              
1 42920U 17049A   26185.22472804  .00000184  00000+0  57696-4 0  9998
2 42920  98.2250 260.1558 0012050  36.4873 323.7141 14.50905149469144
SENTINEL-5P             
1 42969U 17064A   26185.11850532  .00000061  00000+0  50134-4 0  9998
2 42969  98.7927 127.1295 0001092  92.2641 267.8660 14.19521856451969
SKYSAT-C11              
1 42987U 17068A   26184.36791636  .00030970  00000+0  40248-3 0  9993
2 42987  97.4372 333.9135 0000494 157.3230 202.8047 15.58752042485761
SKYSAT-C10              
1 42988U 17068B   26185.17871031  .00013218  00000+0  39226-3 0  9992
2 42988  97.4531 322.1960 0001265 109.1997 250.9384 15.34934397484965
SKYSAT-C9               
1 42989U 17068C   26185.17865373  .00016759  00000+0  39443-3 0  9999
2 42989  97.4451 323.2944 0009308  79.8326 280.3970 15.41988984485379
SKYSAT-C8               
1 42990U 17068D   26185.12401158  .00013395  00000+0  36846-3 0  9990
2 42990  97.4548 322.0056 0001241  96.5568 263.5818 15.37311661484911
SKYSAT-C7               
1 42991U 17068E   26185.11815399  .00013456  00000+0  37044-3 0  9995
2 42991  97.4559 322.9903 0006593  56.7606 303.4269 15.37264492484979
SKYSAT-C6               
1 42992U 17068F   26184.84399326  .00010795  00000+0  32772-3 0  9998
2 42992  97.4595 322.6158 0005207 106.4870 253.6946 15.34255298484874
CARTOSAT-2F             
1 43111U 18004A   26185.33324966  .00003226  00000+0  15658-3 0  9991
2 43111  97.4773 244.8001 0001818 155.4821 204.6501 15.19199267469931
GAOFEN-1 02             
1 43259U 18031A   26185.30911502  .00000407  00000+0  65957-4 0  9995
2 43259  98.0517 247.7879 0002160 341.5614  18.5517 14.76458738445229
GAOFEN-1 03             
1 43260U 18031B   26185.28714374  .00000845  00000+0  12888-3 0  9992
2 43260  98.0509 247.6224 0003216  43.1273 317.0188 14.76450751445211
GAOFEN-1 04             
1 43262U 18031D   26185.33068015  .00000734  00000+0  11293-3 0  9990
2 43262  98.0518 247.8587 0001750  61.0210 299.1175 14.76458351445218
SENTINEL-3B             
1 43437U 18039A   26185.16113559  .00000140  00000+0  76024-4 0  9992
2 43437  98.6242 252.4495 0000879 117.3347 242.7924 14.26739740426549
GAOFEN-5 01             
1 43461U 18043A   26185.18794455  .00000387  00000+0  89654-4 0  9992
2 43461  98.4581 157.1321 0002645  52.5394 307.6046 14.60617525434172
GAOFEN-6                
1 43484U 18048A   26185.14927319  .00000270  00000+0  46409-4 0  9997
2 43484  98.0962 247.8248 0012019 112.9072 247.3408 14.76373246435899
