OBJECT_NAME,OBJECT_ID,EPOCH,MEAN_MOTION,ECCENTRICITY,INCLINATION,RA_OF_ASC_NODE,ARG_OF_PERICENTER,MEAN_ANOMALY,EPHEMERIS_TYPE,CLASSIFICATION_TYPE,NORAD_CAT_ID,ELEMENT_SET_NO,REV_AT_EPOCH,BSTAR,MEAN_MOTION_DOT,MEAN_MOTION_DDOT
SKYSAT-C1,2016-040C,2026-07-03T19:46:40.846368,15.36585802,.00016272,96.9550,215.6440,20.9666,339.1646,0,U,41601,999,56042,.29500105E-3,.10464E-3,0
LAPAN-A3,2016-040E,2026-07-04T06:59:17.266848,15.33220634,.00087732,97.1496,180.8762,323.0423,37.0215,0,U,41603,999,55743,.14709483E-3,.465E-4,0
GAOFEN-3,2016-049A,2026-07-04T06:57:11.370816,14.42218163,.00017009,98.4009,192.8176,92.9835,267.1549,0,U,41727,999,52111,.71026288E-4,.191E-5,0
SKYSAT-C4,2016-058B,2026-07-03T19:22:04.170144,15.49118400,.00028409,96.9164,205.8879,135.1077,225.0405,0,U,41771,999,54804,.35181733E-3,.19051E-3,0
SKYSAT-C5,2016-058C,2026-07-03T22:15:18.722592,15.34712826,.0002087,97.0456,224.8219,185.9472,174.1747,0,U,41772,999,54631,.28878187E-3,.9644E-4,0
SKYSAT-C2,2016-058D,2026-07-03T23:58:44.614272,15.42460635,.00028712,97.0161,206.4644,31.7652,328.3769,0,U,41773,999,54764,.33581134E-3,.14465E-3,0
SKYSAT-C3,2016-058E,2026-07-03T19:59:42.612576,15.53263495,.00016709,96.8996,215.0461,133.2448,226.8947,0,U,41774,999,54869,.42037098E-3,.26418E-3,0
ALSAT-1B,2016-059C,2026-07-04T07:10:26.980896,14.72286754,.00094916,97.7747,193.3241,162.1946,197.9597,0,U,41785,999,52309,.14953614E-4,.47E-6,0
PATHFINDER 1,2016-059E,2026-07-04T05:58:18.653664,14.67683566,.00291681,97.8170,183.7552,149.3231,210.9687,0,U,41787,999,52221,.13880538E-3,.748E-5,0
SCATSAT 1,2016-059H,2026-07-04T02:53:47.330880,14.79565973,.00543895,98.1182,249.0611,192.1271,167.8635,0,U,41790,999,10409,.20876195E-3,.1545E-4,0
GOKTURK 1A,2016-073A,2026-07-04T06:40:42.199680,14.62786667,.00014056,98.1229,79.6835,77.9555,282.1804,0,U,41875,999,51132,.73182123E-4,.327E-5,0
RESOURCESAT-2A,2016-074A,2026-07-04T05:51:29.002752,14.21606948,.00029518,98.7524,258.6090,51.0121,309.1319,0,U,41877,999,49672,.14266176E-3,.269E-5,0
CARTOSAT-2D,2017-008A,2026-07-04T06:47:32.703360,15.19215358,.00050421,97.4094,244.2691,170.8808,189.2519,0,U,41948,999,52017,.19492333E-3,.4037E-4,0
SENTINEL-2B,2017-013A,2026-07-04T06:29:24.204192,14.30811889,.00011945,98.5688,259.8039,90.0503,270.0817,0,U,42063,999,48708,-.51027567E-4,-.177E-5,0
CARTOSAT-2E,2017-036C,2026-07-03T15:24:38.922624,15.19298181,.00024899,97.4262,244.1738,235.4252,124.6748,0,U,42767,999,50064,.32508747E-3,.6795E-4,0
FORMOSAT-5,2017-049A,2026-07-04T05:23:36.502656,14.50905149,.00120504,98.2250,260.1558,36.4873,323.7141,0,U,42920,999,46914,.57696334E-4,.184E-5,0
SENTINEL-5P,2017-064A,2026-07-04T02:50:38.859648,14.19521856,.00010926,98.7927,127.1295,92.2641,267.8660,0,U,42969,999,45196,.50133941E-4,.61E-6,0
SKYSAT-C11,2017-068A,2026-07-03T08:49:47.973504,15.58752042,.0000494,97.4372,333.9135,157.3230,202.8047,0,U,42987,999,48576,.40247853E-3,.3097E-3,0
SKYSAT-C10,2017-068B,2026-07-04T04:17:20.570784,15.34934397,.00012658,97.4531,322.1960,109.1997,250.9384,0,U,42988,999,48496,.39226245E-3,.13218E-3,0
SKYSAT-C9,2017-068C,2026-07-04T04:17:15.682272,15.41988984,.00093084,97.4451,323.2944,79.8326,280.3970,0,U,42989,999,48537,.39443121E-3,.16759E-3,0
SKYSAT-C8,2017-068D,2026-07-04T02:58:34.600512,15.37311661,.00012413,97.4548,322.0056,96.5568,263.5818,0,U,42990,999,48491,.36846056E-3,.13395E-3,0
SKYSAT-C7,2017-068E,2026-07-04T02:50:08.504736,15.37264492,.00065931,97.4559,322.9903,56.7606,303.4269,0,U,42991,999,48497,.3704449E-3,.13456E-3,0
SKYSAT-C6,2017-068F,2026-07-03T20:15:21.017664,15.34255298,.00052077,97.4595,322.6158,106.4870,253.6946,0,U,42992,999,48487,.32772202E-3,.10795E-3,0
CARTOSAT-2F,2018-004A,2026-07-04T07:59:52.770624,15.19199267,.00018184,97.4773,244.8001,155.4821,204.6501,0,U,43111,999,46993,.15657798E-3,.3226E-4,0
GAOFEN-1 02,2018-031A,2026-07-04T07:25:07.537728,14.76458738,.000216,98.0517,247.7879,341.5614,18.5517,0,U,43259,999,44522,.65956838E-4,.407E-5,0
GAOFEN-1 03,2018-031B,2026-07-04T06:53:29.219136,14.76450751,.00032169,98.0509,247.6224,43.1273,317.0188,0,U,43260,999,44521,.12888315E-3,.845E-5,0
GAOFEN-1 04,2018-031D,2026-07-04T07:56:10.764960,14.76458351,.00017507,98.0518,247.8587,61.0210,299.1175,0,U,43262,999,44521,.11292529E-3,.734E-5,0
SENTINEL-3B,2018-039A,2026-07-04T03:52:02.114976,14.26739740,.00008799,98.6242,252.4495,117.3347,242.7924,0,U,43437,999,42654,.76024296E-4,.14E-5,0
GAOFEN-5 01,2018-043A,2026-07-04T04:30:38.409120,14.60617525,.00026457,98.4581,157.1321,52.5394,307.6046,0,U,43461,999,43417,.89654455E-4,.387E-5,0
GAOFEN-6,2018-048A,2026-07-04T03:34:57.203616,14.76373246,.00120196,98.0962,247.8248,112.9072,247.3408,0,U,43484,999,43589,.46408784E-4,.27E-5,0
